NORAD_CAT_ID,OBJECT_NAME,OBJECT_TYPE,EPOCH,MEAN_MOTION,ECCENTRICITY,INCLINATION,RA_OF_ASC_NODE,ARG_OF_PERICENTER,MEAN_ANOMALY,BSTAR,MEAN_MOTION_DOT,MEAN_MOTION_DDOT,TLE_LINE0,TLE_LINE1,TLE_LINE2,SEMIMAJOR_AXIS,PERIOD,APOGEE,PERIGEE,DECAYED
53180.0,STARLINK-4258,PAYLOAD,2023-10-06 14:00:01,15.0881459,9.45e-05,53.2146,137.3858,83.2249,178.28,0.0031927,0.00050855,0.0,0 STARLINK-4258,1 53180U 22083BA  23279.58335648  .00050855  00000-0  31927-2 0  9994,2 53180  53.2146 137.3858 0000945  83.2249 178.2800 15.08814590 68923,6917.958,95.439,540.477,539.169,0.0
53180.0,STARLINK-4258,PAYLOAD,2023-10-06 22:00:01,15.08846143,0.0001015,53.2147,135.8911,70.8843,202.2078,-0.0013138,-0.00021139,0.0,0 STARLINK-4258,1 53180U 22083BA  23279.91668981 -.00021139  00000-0 -13138-2 0  9999,2 53180  53.2147 135.8911 0001015  70.8843 202.2078 15.08846143  5800,6917.862,95.437,540.429,539.024,0.0
53180.0,STARLINK-4258,PAYLOAD,2023-10-07 06:00:00,15.08851148,9.07e-05,53.2148,134.394,72.0571,212.5634,-0.00085998,-0.00013952,0.0,0 STARLINK-4258,1 53180U 22083BA  23280.25001157 -.00013952  00000-0 -85998-3 0  9992,2 53180  53.2148 134.3940 0000907  72.0571 212.5634 15.08851148 69025,6917.846,95.437,540.339,539.084,0.0
53180.0,STARLINK-4258,PAYLOAD,2023-10-07 14:00:01,15.08839284,9.58e-05,53.2151,132.8965,86.0688,210.1477,0.0026709,0.00042475,0.0,0 STARLINK-4258,1 53180U 22083BA  23280.58334491  .00042475  00000-0  26709-2 0  9992,2 53180  53.2151 132.8965 0000958  86.0688 210.1477 15.08839284  5799,6917.883,95.438,540.41,539.085,0.0
53180.0,STARLINK-4258,PAYLOAD,2023-10-07 22:00:00,15.08874591,0.000112,53.2152,131.4019,74.361,233.4723,-0.0051878,-0.00081989,0.0,0 STARLINK-4258,1 53180U 22083BA  23280.91667824 -.00081989  00000-0 -51878-2 0  9998,2 53180  53.2152 131.4019 0001120  74.3610 233.4723 15.08874591  5840,6917.775,95.435,540.414,538.865,0.0
53180.0,STARLINK-4258,PAYLOAD,2023-10-07 23:49:15,15.08859561,0.000105,53.2154,131.0597,78.2309,281.8801,0.00077616,0.00012093,0.0,0 STARLINK-4258,1 53180U 22083BA  23280.99253637  .00012093  00000-0  77616-3 0  9996,2 53180  53.2154 131.0597 0001050  78.2309 281.8801 15.08859561 69146,6917.821,95.436,540.412,538.959,0.0
53180.0,STARLINK-4258,PAYLOAD,2023-10-08 07:46:10,15.08852323,8.96e-05,53.2157,129.5736,74.6891,285.42,0.00040595,6.181e-05,0.0,0 STARLINK-4258,1 53180U 22083BA  23281.32373605  .00006181  00000-0  40595-3 0  9999,2 53180  53.2157 129.5736 0000896  74.6891 285.4200 15.08852323 69196,6917.843,95.437,540.328,539.088,0.0
53180.0,STARLINK-4258,PAYLOAD,2023-10-08 14:07:43,15.08851299,0.0001668,53.2152,128.3843,79.3695,280.7484,0.00041573,6.337e-05,0.0,0 STARLINK-4258,1 53180U 22083BA  23281.58869838  .00006337  00000-0  41573-3 0  9995,2 53180  53.2152 128.3843 0001668  79.3695 280.7484 15.08851299 68595,6917.846,95.437,540.865,538.557,0.0
53180.0,STARLINK-4258,PAYLOAD,2023-10-08 18:53:52,15.08846815,0.000119,53.2155,127.492,83.4964,276.6164,0.00028939,4.322e-05,0.0,0 STARLINK-4258,1 53180U 22083BA  23281.78741752  .00004322  00000-0  28939-3 0  9994,2 53180  53.2155 127.4920 0001190  83.4964 276.6164 15.08846815 69261,6917.86,95.437,540.548,538.901,0.0
53180.0,STARLINK-4258,PAYLOAD,2023-10-08 20:29:16,15.08847065,0.0001266,53.2161,127.1954,83.9589,276.1547,0.00031427,4.718e-05,0.0,0 STARLINK-4258,1 53180U 22083BA  23281.85365764  .00004718  00000-0  31427-3 0  9992,2 53180  53.2161 127.1954 0001266  83.9589 276.1547 15.08847065 68632,6917.859,95.437,540.6,538.848,0.0
53180.0,STARLINK-4258,PAYLOAD,2023-10-08 23:40:02,15.08849952,0.0001268,53.2162,126.6002,85.188,274.9257,0.00047418,7.269e-05,0.0,0 STARLINK-4258,1 53180U 22083BA  23281.98613683  .00007269  00000-0  47418-3 0  9993,2 53180  53.2162 126.6002 0001268  85.1880 274.9257 15.08849952 68654,6917.85,95.437,540.592,538.838,0.0
53180.0,STARLINK-4258,PAYLOAD,2023-10-09 18:44:40,15.08841977,0.0001246,53.2161,123.0301,86.841,273.2725,3.5098e-05,2.71e-06,0.0,0 STARLINK-4258,1 53180U 22083BA  23282.78101879  .00000271  00000-0  35098-4 0  9999,2 53180  53.2161 123.0301 0001246  86.8410 273.2725 15.08841977 69415,6917.874,95.437,540.601,538.877,0.0
53180.0,STARLINK-4258,PAYLOAD,2023-10-09 21:55:26,15.08845444,0.0001193,53.2164,122.4349,84.9421,275.1708,0.00011272,1.507e-05,0.0,0 STARLINK-4258,1 53180U 22083BA  23282.91349708  .00001507  00000-0  11272-3 0  9999,2 53180  53.2164 122.4349 0001193  84.9421 275.1708 15.08845444 68790,6917.864,95.437,540.554,538.903,0.0
53180.0,STARLINK-4258,PAYLOAD,2023-10-10 13:49:17,15.08843233,0.0001235,53.216,119.4614,89.6951,270.4182,0.00016402,2.324e-05,0.0,0 STARLINK-4258,1 53180U 22083BA  23283.57589791  .00002324  00000-0  16402-3 0  9998,2 53180  53.2160 119.4614 0001235  89.6951 270.4182 15.08843233 68893,6917.871,95.437,540.59,538.881,0.0
53180.0,STARLINK-4258,PAYLOAD,2023-10-10 20:10:49,15.08851208,0.0001134,53.2162,118.2727,89.2911,270.8211,0.00025358,3.751e-05,0.0,0 STARLINK-4258,1 53180U 22083BA  23283.84085370  .00003751  00000-0  25358-3 0  9997,2 53180  53.2162 118.2727 0001134  89.2911 270.8211 15.08851208 68930,6917.846,95.437,540.496,538.927,0.0
53180.0,STARLINK-4258,PAYLOAD,2023-10-10 23:21:35,15.0885382,0.0001131,53.2161,117.6779,89.5612,270.551,0.0003011,4.509e-05,0.0,0 STARLINK-4258,1 53180U 22083BA  23283.97333240  .00004509  00000-0  30110-3 0  9997,2 53180  53.2161 117.6779 0001131  89.5612 270.5510 15.08853820 69591,6917.838,95.437,540.486,538.921,0.0
53180.0,STARLINK-4258,PAYLOAD,2023-10-11 05:43:08,15.08847051,0.0001083,53.2158,116.4881,91.9973,268.1143,0.00015113,2.119e-05,0.0,0 STARLINK-4258,1 53180U 22083BA  23284.23829343  .00002119  00000-0  15113-3 0  9992,2 53180  53.2158 116.4881 0001083  91.9973 268.1143 15.08847051 69630,6917.859,95.437,540.473,538.975,0.0
53180.0,STARLINK-4258,PAYLOAD,2023-10-11 18:26:14,15.08831559,0.0001399,53.2166,114.1088,85.7921,274.3231,-0.00016327,-2.885e-05,0.0,0 STARLINK-4258,1 53180U 22083BA  23284.76822081 -.00002885  00000-0 -16327-3 0  9992,2 53180  53.2166 114.1088 0001399  85.7921 274.3231 15.08831559 69719,6917.906,95.438,540.739,538.803,0.0
53180.0,STARLINK-4258,PAYLOAD,2023-10-12 05:33:56,15.08838913,0.0001289,53.2157,112.0283,88.548,271.5659,1.3146e-05,-7.9e-07,0.0,0 STARLINK-4258,1 53180U 22083BA  23285.23189936 -.00000079  00000-0  13146-4 0  9999,2 53180  53.2157 112.0283 0001289  88.5480 271.5659 15.08838913 69783,6917.884,95.438,540.64,538.857,0.0
53180.0,STARLINK-4258,PAYLOAD,2023-10-12 18:17:00,15.08847513,0.0001158,53.2156,109.649,91.937,268.1754,9.7855e-05,1.27e-05,0.0,0 STARLINK-4258,1 53180U 22083BA  23285.76181435  .00001270  00000-0  97855-4 0  9995,2 53180  53.2156 109.6490 0001158  91.9370 268.1754 15.08847513 69228,6917.857,95.437,540.524,538.921,0.0
53180.0,STARLINK-4258,PAYLOAD,2023-10-13 11:46:15,15.0883999,0.0001706,53.2167,106.3808,84.2181,275.9005,0.0001325,1.821e-05,0.0,0 STARLINK-4258,1 53180U 22083BA  23286.49046083  .00001821  00000-0  13250-3 0  9993,2 53180  53.2167 106.3808 0001706  84.2181 275.9005 15.08839990 69978,6917.88,95.438,540.926,538.565,0.0
53180.0,STARLINK-4258,PAYLOAD,2023-10-13 18:07:48,15.08835034,0.0001055,53.2154,105.1889,82.862,277.2492,0.00010706,1.416e-05,0.0,0 STARLINK-4258,1 53180U 22083BA  23286.75542221  .00001416  00000-0  10706-3 0  9990,2 53180  53.2154 105.1889 0001055  82.8620 277.2492 15.08835034 69373,6917.896,95.438,540.49,539.031,0.0
53180.0,STARLINK-4258,PAYLOAD,2023-10-14 11:37:02,15.08839026,0.0001217,53.2155,101.9173,83.9303,276.1827,7.3546e-05,8.83e-06,0.0,0 STARLINK-4258,1 53180U 22083BA  23287.48406087  .00000883  00000-0  73546-4 0  9999,2 53180  53.2155 101.9173 0001217  83.9303 276.1827 15.08839026 69481,6917.883,95.438,540.59,538.906,0.0
53180.0,STARLINK-4258,PAYLOAD,2023-10-14 17:58:35,15.08843236,0.0001183,53.2149,100.7276,88.0312,272.0815,0.00011644,1.566e-05,0.0,0 STARLINK-4258,1 53180U 22083BA  23287.74901920  .00001566  00000-0  11644-3 0  9993,2 53180  53.2149 100.7276 0001183  88.0312 272.0815 15.08843236 69528,6917.87,95.437,540.554,538.917,0.0
53180.0,STARLINK-4258,PAYLOAD,2023-10-15 11:27:50,15.08839152,0.0001339,53.2148,97.457,81.7308,278.3836,0.00016822,2.39e-05,0.0,0 STARLINK-4258,1 53180U 22083BA  23288.47766303  .00002390  00000-0  16822-3 0  9997,2 53180  53.2148  97.4570 0001339  81.7308 278.3836 15.08839152 70272,6917.883,95.438,540.674,538.822,0.0
53180.0,STARLINK-4258,PAYLOAD,2023-10-15 14:38:36,15.08838431,0.0001207,53.2153,96.8626,80.6213,279.4916,0.0001854,2.664e-05,0.0,0 STARLINK-4258,1 53180U 22083BA  23288.61014364  .00002664  00000-0  18540-3 0  9999,2 53180  53.2153  96.8626 0001207  80.6213 279.4916 15.08838431 69650,6917.885,95.438,540.585,538.915,0.0
53180.0,STARLINK-4258,PAYLOAD,2023-10-15 17:49:22,15.0884356,0.00011,53.2155,96.267,81.2846,278.8271,0.00017768,2.541e-05,0.0,0 STARLINK-4258,1 53180U 22083BA  23288.74262076  .00002541  00000-0  17768-3 0  9993,2 53180  53.2155  96.2670 0001100  81.2846 278.8271 15.08843560 69674,6917.87,95.437,540.495,538.974,0.0
53180.0,STARLINK-4258,PAYLOAD,2023-10-16 14:29:23,15.08841498,0.0001309,53.2156,92.4011,87.5641,272.5501,0.00011109,1.481e-05,0.0,0 STARLINK-4258,1 53180U 22083BA  23289.60374215  .00001481  00000-0  11109-3 0  9993,2 53180  53.2156  92.4011 0001309  87.5641 272.5501 15.08841498 69805,6917.876,95.437,540.646,538.835,0.0
53180.0,STARLINK-4258,PAYLOAD,2023-10-16 16:04:46,15.08841501,0.0001299,53.2157,92.1037,87.6078,272.5062,0.0001066,1.409e-05,0.0,0 STARLINK-4258,1 53180U 22083BA  23289.66998201  .00001409  00000-0  10660-3 0  9997,2 53180  53.2157  92.1037 0001299  87.6078 272.5062 15.08841501 70454,6917.876,95.437,540.639,538.842,0.0
53180.0,STARLINK-4258,PAYLOAD,2023-10-16 20:50:55,15.08844637,0.0001318,53.2159,91.2113,89.0725,271.0418,0.00012635,1.724e-05,0.0,0 STARLINK-4258,1 53180U 22083BA  23289.86870000  .00001724  00000-0  12635-3 0  9999,2 53180  53.2159  91.2113 0001318  89.0725 271.0418 15.08844637 69841,6917.866,95.437,540.643,538.819,0.0
